STARLINK-1750
1 16337C 20062P   21326.14045107  .00009577  00000-0  64162-3 0  3263
2 16337  53.0514 198.1067 0002253  73.3501 341.0049 15.06392591    19
